     2.100          NAVIGATION                              RINEX VERSION / TYPE
fic2rin                                 05/21/2011 00:06:22 PGM / RUN BY / DATE
                                                            END OF HEADER
14 11  5 20  6  0  0.0  .151046551764D-03  .227373675443D-11  .000000000000D+00
     .890000000000D+02  .106281250000D+03  .386873257681D-08 -.172341860111D+01
     .554881989956D-05  .571202579886D-02  .483170151711D-05  .515366890335D+04
     .453600000000D+06  .163912773132D-06  .140673122576D+01 -.540167093277D-07
     .982620857143D+00  .300281250000D+03 -.210720943334D+01 -.785246994404D-08
     .166792661870D-09  .100000000000D+01  .163600000000D+04  .000000000000D+00
     .240000000000D+01  .000000000000D+00 -.884756445885D-08  .890000000000D+02
     .446406000000D+06  .400000000000D+01
15 11  5 20  6  0  0.0 -.126978382468D-03  .250111042988D-11  .000000000000D+00
     .550000000000D+02  .125468750000D+03  .460054877418D-08 -.213704868898D+01
     .653043389320D-05  .341347930953D-02  .558048486710D-05  .515361985970D+04
     .453600000000D+06 -.223517417908D-07  .133110842740D+01  .931322574615D-08
     .949848244489D+00  .268437500000D+03 -.440875320570D-01 -.822677124947D-08
     .245724521127D-09  .100000000000D+01  .163600000000D+04  .000000000000D+00
     .240000000000D+01  .000000000000D+00 -.102445483208D-07  .550000000000D+02
     .446406000000D+06  .400000000000D+01
16 11  5 20  6  0  0.0 -.173328444362D-03 -.261479726760D-11  .000000000000D+00
     .220000000000D+02 -.100093750000D+03  .398445168269D-08 -.375812745584D+00
    -.522658228874D-05  .638789602090D-02  .978447496891D-05  .515380994797D+04
     .453600000000D+06  .894069671631D-07 -.280442558815D+01 -.502914190292D-07
     .976480694455D+00  .194531250000D+03 -.116272532909D+00 -.776960934970D-08
     .143934566881D-09  .100000000000D+01  .163600000000D+04  .000000000000D+00
     .240000000000D+01  .000000000000D+00 -.977888703346D-08  .220000000000D+02
     .446406000000D+06  .400000000000D+01
17 11  5 20  6  0  0.0  .184316188097D-03  .000000000000D+00  .000000000000D+00
     .300000000000D+01  .250000000000D+00  .472912555849D-08 -.142561619763D+01
     .104308128357D-06  .633273925632D-02  .859797000885D-05  .515375584221D+04
     .453600000000D+06  .126659870148D-06 -.176209042068D+01  .335276126862D-07
     .960838934433D+00  .213000000000D+03 -.239377368404D+01 -.788854287519D-08
     .647884129832D-09  .100000000000D+01  .163600000000D+04  .000000000000D+00
     .240000000000D+01  .000000000000D+00 -.107102096081D-07  .300000000000D+01
     .446406000000D+06  .400000000000D+01
18 11  5 20  6  0  0.0  .137899070978D-03  .193267624127D-11  .000000000000D+00
     .790000000000D+02  .408125000000D+02  .504521015325D-08 -.100408450301D-01
     .224635004997D-05  .123379022116D-01  .101793557405D-04  .515360109711D+04
     .453600000000D+06 -.279396772385D-07  .318917184341D+00  .216066837311D-06
     .933573478351D+00  .169562500000D+03 -.225305254820D+01 -.836499129261D-08
    -.509664086698D-09  .100000000000D+01  .163600000000D+04  .000000000000D+00
     .240000000000D+01  .000000000000D+00 -.107102096081D-07  .790000000000D+02
     .446406000000D+06  .400000000000D+01
19 11  5 20  6  0  0.0 -.142452772707D-03 -.397903932026D-11  .000000000000D+00
     .690000000000D+02  .147812500000D+02  .483913014062D-08 -.205790033119D+01
     .569969415665D-06  .732745695859D-02  .854767858982D-05  .515365235138D+04
     .453600000000D+06 -.745058059692D-07 -.170801915006D+01 -.117346644402D-06
     .958320951057D+00  .215500000000D+03  .541568761941D-02 -.799354724904D-08
     .643598237021D-09  .100000000000D+01  .163600000000D+04  .000000000000D+00
     .240000000000D+01  .000000000000D+00 -.144354999065D-07  .690000000000D+02
     .446406000000D+06  .400000000000D+01
22 11  5 20  6  0  0.0  .148596707731D-03 -.454747350886D-12  .000000000000D+00
     .410000000000D+02  .463437500000D+02  .498127891883D-08 -.807620105533D+00
     .228732824326D-05  .564157823101D-02  .101458281279D-04  .515371000290D+04
     .453600000000D+06 -.670552253723D-07  .323063275579D+00  .137835741043D-06
     .931268624585D+00  .167406250000D+03 -.197972174912D+01 -.824141471657D-08
    -.535379443560D-09  .100000000000D+01  .163600000000D+04  .000000000000D+00
     .340000000000D+01  .000000000000D+00 -.167638063431D-07  .410000000000D+02
     .446406000000D+06  .400000000000D+01
23 11  5 20  6  0  0.0  .305224210024D-03 -.272848410532D-11  .000000000000D+00
     .140000000000D+02  .135968750000D+03  .426053461123D-08 -.247789244205D+01
     .696815550327D-05  .719723466318D-02  .521354377270D-05  .515377853966D+04
     .453600000000D+06 -.391155481339D-07  .136135350529D+01 -.931322574615D-08
     .964321258777D+00  .284218750000D+03  .314088006619D+01 -.803354891527D-08
     .272154193457D-09  .100000000000D+01  .163600000000D+04  .000000000000D+00
     .240000000000D+01  .000000000000D+00 -.200234353542D-07  .140000000000D+02
     .446406000000D+06  .400000000000D+01
24 11  5 20  6  0  0.0  .391467474401D-03  .329691829393D-11  .000000000000D+00
     .470000000000D+02 -.104687500000D+02  .520450250271D-08  .303960257672D+01
    -.512227416039D-06  .616184785031D-02  .609643757343D-05  .515370220947D+04
     .453600000000D+06 -.109896063805D-06 -.690264859639D+00  .651925802231D-07
     .948227558010D+00  .254656250000D+03 -.281524190704D+00 -.812390982202D-08
    -.345014371233D-09  .100000000000D+01  .163600000000D+04  .000000000000D+00
     .340000000000D+01  .000000000000D+00 -.139698386192D-08  .470000000000D+02
     .446406000000D+06  .400000000000D+01
25 11  5 20  6  0  0.0  .517349690199D-06  .113686837722D-11  .000000000000D+00
     .590000000000D+02 -.108968750000D+03  .426589197724D-08  .378028144835D+00
    -.583380460739D-05  .784292817116D-03  .907108187675D-05  .515366047096D+04
     .453600000000D+06  .130385160446D-07 -.285197816164D+01 -.204890966415D-07
     .964258951633D+00  .208843750000D+03  .844906635307D+00 -.788747140199D-08
     .100004165575D-09  .100000000000D+01  .163600000000D+04  .000000000000D+00
     .240000000000D+01  .000000000000D+00  .512227416039D-08  .590000000000D+02
     .446406000000D+06  .400000000000D+01
26 11  5 20  6  0  0.0 -.355574302375D-04 -.110276232590D-10  .000000000000D+00
     .380000000000D+02  .133781250000D+03  .368801076331D-08 -.282527477770D+01
     .682845711708D-05  .204969248734D-01  .496767461300D-05  .515365905380D+04
     .453600000000D+06  .217929482460D-06  .142617462857D+01 -.152736902237D-06
     .987201394089D+00  .295906250000D+03  .114732675433D+01 -.757210112269D-08
     .323227749447D-09  .100000000000D+01  .163600000000D+04  .000000000000D+00
     .240000000000D+01  .000000000000D+00 -.605359673500D-08  .380000000000D+02
     .446406000000D+06  .400000000000D+01
27 11  5 20  6  0  0.0  .266714021564D-03  .375166564481D-11  .000000000000D+00
     .960000000000D+02 -.318437500000D+02  .415303013323D-08 -.184041023432D+01
    -.100955367088D-05  .215696725063D-01  .129826366901D-05  .515367253685D+04
     .453600000000D+06 -.428408384323D-07  .235201340303D+01  .579282641411D-06
     .980912594535D+00  .365187500000D+03 -.125232116461D+01 -.813569602725D-08
     .535736601294D-11  .100000000000D+01  .163600000000D+04  .000000000000D+00
     .340000000000D+01  .000000000000D+00 -.419095158577D-08  .960000000000D+02
     .446406000000D+06  .400000000000D+01
28 11  5 20  6  0  0.0  .389972701669D-04  .261479726760D-11  .000000000000D+00
     .330000000000D+02 -.115000000000D+03  .407838416679D-08 -.740553819931D+00
    -.579282641411D-05  .169757198310D-01  .104103237391D-04  .515370481873D+04
     .453600000000D+06 -.154599547386D-06 -.279719476445D+01  .260770320892D-06
     .974766289054D+00  .190562500000D+03 -.188909776014D+01 -.801283376669D-08
     .157506560780D-09  .100000000000D+01  .163600000000D+04  .000000000000D+00
     .240000000000D+01  .000000000000D+00 -.102445483208D-07  .330000000000D+02
     .446406000000D+06  .400000000000D+01
29 11  5 20  6  0  0.0  .208878424019D-03  .295585778076D-11  .000000000000D+00
     .103000000000D+03  .440625000000D+01  .474269755239D-08  .143755447082D+01
     .236555933952D-06  .263951951638D-02  .839866697788D-05  .515379162788D+04
     .453600000000D+06  .540167093277D-07 -.175370875881D+01 -.949949026108D-07
     .961271759227D+00  .221031250000D+03 -.120343451810D+01 -.793175896103D-08
     .535379443560D-09  .100000000000D+01  .163600000000D+04  .000000000000D+00
     .240000000000D+01  .000000000000D+00 -.931322574615D-08  .103000000000D+03
     .446406000000D+06  .400000000000D+01
30 11  5 20  6  0  0.0  .120233744383D-05  .432009983342D-11  .000000000000D+00
     .810000000000D+02 -.107062500000D+03  .429875048878D-08 -.160054411640D+01
    -.527314841747D-05  .127161464188D-01  .941380858421D-05  .515367752838D+04
     .453600000000D+06  .707805156708D-07 -.288118280780D+01  .311061739922D-06
     .960879597704D+00  .193500000000D+03  .152549138796D+01 -.785246994404D-08
     .803604901941D-10  .100000000000D+01  .163600000000D+04  .000000000000D+00
     .136500000000D+02  .630000000000D+02 -.838190317154D-08  .810000000000D+02
     .446406000000D+06  .400000000000D+01
31 11  5 20  6  0  0.0  .829803757370D-04  .557065504836D-11  .000000000000D+00
     .610000000000D+02 -.514375000000D+02  .410374236591D-08  .205555505115D+01
    -.259652733803D-05  .765118713025D-02  .139139592648D-05  .515366335297D+04
     .453600000000D+06  .968575477600D-07  .240765125702D+01  .260770320892D-07
     .979612629438D+00  .360187500000D+03 -.955256975933D+00 -.804997817105D-08
    -.120004998690D-09  .100000000000D+01  .163600000000D+04  .000000000000D+00
     .240000000000D+01  .000000000000D+00 -.130385160446D-07  .610000000000D+02
     .446406000000D+06  .400000000000D+01
